CCSDS_OMM_VERS = 2.0
CREATION_DATE  = 
ORIGINATOR     = 

OBJECT_NAME    = SENTINEL-6B
OBJECT_ID      = 2025-264A
CENTER_NAME    = EARTH
REF_FRAME      = TEME
TIME_SYSTEM    = UTC
MEAN_ELEMENT_THEORY = SGP/SGP4

EPOCH          = 2025-12-07T23:04:25.327200
MEAN_MOTION    = 12.84031938
ECCENTRICITY   = .0021041
INCLINATION    = 66.0386
RA_OF_ASC_NODE = 172.3856
ARG_OF_PERICENTER = 268.5107
MEAN_ANOMALY   = 91.3500

EPHEMERIS_TYPE = 0
CLASSIFICATION_TYPE = U
NORAD_CAT_ID   = 66514
ELEMENT_SET_NO = 999
REV_AT_EPOCH   = 267
BSTAR          = .11848474E-3
MEAN_MOTION_DOT = -.33E-6
MEAN_MOTION_DDOT = 0

CCSDS_OMM_VERS = 2.0
CREATION_DATE  = 
ORIGINATOR     = 

OBJECT_NAME    = STARLINK-35924
OBJECT_ID      = 2025-265A
CENTER_NAME    = EARTH
REF_FRAME      = TEME
TIME_SYSTEM    = UTC
MEAN_ELEMENT_THEORY = SGP/SGP4

EPOCH          = 2025-12-07T22:00:03.000096
MEAN_MOTION    = 15.59423408
ECCENTRICITY   = .00012731
INCLINATION    = 43.0004
RA_OF_ASC_NODE = 82.3045
ARG_OF_PERICENTER = 284.7849
MEAN_ANOMALY   = 225.4864

EPHEMERIS_TYPE = 0
CLASSIFICATION_TYPE = U
NORAD_CAT_ID   = 66516
ELEMENT_SET_NO = 999
REV_AT_EPOCH   = 420
BSTAR          = -.28477882E-1
MEAN_MOTION_DOT = -.2026781E-1
MEAN_MOTION_DDOT = 0

CCSDS_OMM_VERS = 2.0
CREATION_DATE  = 
ORIGINATOR     = 

OBJECT_NAME    = STARLINK-35937
OBJECT_ID      = 2025-265B
CENTER_NAME    = EARTH
REF_FRAME      = TEME
TIME_SYSTEM    = UTC
MEAN_ELEMENT_THEORY = SGP/SGP4

EPOCH          = 2025-12-07T22:00:03.000096
MEAN_MOTION    = 15.59420835
ECCENTRICITY   = .00013548
INCLINATION    = 43.0003
RA_OF_ASC_NODE = 82.3001
ARG_OF_PERICENTER = 287.9729
MEAN_ANOMALY   = 224.2165

EPHEMERIS_TYPE = 0
CLASSIFICATION_TYPE = U
NORAD_CAT_ID   = 66517
ELEMENT_SET_NO = 999
REV_AT_EPOCH   = 421
BSTAR          = -.28439103E-1
MEAN_MOTION_DOT = -.2024256E-1
MEAN_MOTION_DDOT = 0

CCSDS_OMM_VERS = 2.0
CREATION_DATE  = 
ORIGINATOR     = 

OBJECT_NAME    = STARLINK-35962
OBJECT_ID      = 2025-265C
CENTER_NAME    = EARTH
REF_FRAME      = TEME
TIME_SYSTEM    = UTC
MEAN_ELEMENT_THEORY = SGP/SGP4

EPOCH          = 2025-12-07T22:00:03.000096
MEAN_MOTION    = 15.59424270
ECCENTRICITY   = .00013241
INCLINATION    = 43.0002
RA_OF_ASC_NODE = 82.2951
ARG_OF_PERICENTER = 287.0783
MEAN_ANOMALY   = 227.0254

EPHEMERIS_TYPE = 0
CLASSIFICATION_TYPE = U
NORAD_CAT_ID   = 66518
ELEMENT_SET_NO = 999
REV_AT_EPOCH   = 421
BSTAR          = -.28493521E-1
MEAN_MOTION_DOT = -.202785E-1
MEAN_MOTION_DDOT = 0

CCSDS_OMM_VERS = 2.0
CREATION_DATE  = 
ORIGINATOR     = 

OBJECT_NAME    = STARLINK-35931
OBJECT_ID      = 2025-265D
CENTER_NAME    = EARTH
REF_FRAME      = TEME
TIME_SYSTEM    = UTC
MEAN_ELEMENT_THEORY = SGP/SGP4

EPOCH          = 2025-12-07T22:00:03.000096
MEAN_MOTION    = 15.59422303
ECCENTRICITY   = .00013201
INCLINATION    = 43.0003
RA_OF_ASC_NODE = 82.2901
ARG_OF_PERICENTER = 287.3487
MEAN_ANOMALY   = 228.6740

EPHEMERIS_TYPE = 0
CLASSIFICATION_TYPE = U
NORAD_CAT_ID   = 66519
ELEMENT_SET_NO = 999
REV_AT_EPOCH   = 421
BSTAR          = -.28464889E-1
MEAN_MOTION_DOT = -.2025933E-1
MEAN_MOTION_DDOT = 0

CCSDS_OMM_VERS = 2.0
CREATION_DATE  = 
ORIGINATOR     = 

OBJECT_NAME    = STARLINK-35952
OBJECT_ID      = 2025-265E
CENTER_NAME    = EARTH
REF_FRAME      = TEME
TIME_SYSTEM    = UTC
MEAN_ELEMENT_THEORY = SGP/SGP4

EPOCH          = 2025-12-07T22:00:03.000096
MEAN_MOTION    = 15.59422974
ECCENTRICITY   = .000131
INCLINATION    = 43.0003
RA_OF_ASC_NODE = 82.2850
ARG_OF_PERICENTER = 286.8728
MEAN_ANOMALY   = 231.0682

EPHEMERIS_TYPE = 0
CLASSIFICATION_TYPE = U
NORAD_CAT_ID   = 66520
ELEMENT_SET_NO = 999
REV_AT_EPOCH   = 421
BSTAR          = -.28497623E-1
MEAN_MOTION_DOT = -.2028006E-1
MEAN_MOTION_DDOT = 0

CCSDS_OMM_VERS = 2.0
CREATION_DATE  = 
ORIGINATOR     = 

OBJECT_NAME    = STARLINK-35915
OBJECT_ID      = 2025-265F
CENTER_NAME    = EARTH
REF_FRAME      = TEME
TIME_SYSTEM    = UTC
MEAN_ELEMENT_THEORY = SGP/SGP4

EPOCH          = 2025-12-07T22:00:03.000096
MEAN_MOTION    = 15.59424203
ECCENTRICITY   = .00013895
INCLINATION    = 43.0002
RA_OF_ASC_NODE = 82.2801
ARG_OF_PERICENTER = 288.0535
MEAN_ANOMALY   = 231.8031

EPHEMERIS_TYPE = 0
CLASSIFICATION_TYPE = U
NORAD_CAT_ID   = 66521
ELEMENT_SET_NO = 999
REV_AT_EPOCH   = 421
BSTAR          = -.28523511E-1
MEAN_MOTION_DOT = -.2029758E-1
MEAN_MOTION_DDOT = 0

CCSDS_OMM_VERS = 2.0
CREATION_DATE  = 
ORIGINATOR     = 

OBJECT_NAME    = STARLINK-35946
OBJECT_ID      = 2025-265G
CENTER_NAME    = EARTH
REF_FRAME      = TEME
TIME_SYSTEM    = UTC
MEAN_ELEMENT_THEORY = SGP/SGP4

EPOCH          = 2025-12-07T22:00:03.000096
MEAN_MOTION    = 15.59422945
ECCENTRICITY   = .00013691
INCLINATION    = 43.0002
RA_OF_ASC_NODE = 82.2753
ARG_OF_PERICENTER = 289.0178
MEAN_ANOMALY   = 232.7560

EPHEMERIS_TYPE = 0
CLASSIFICATION_TYPE = U
NORAD_CAT_ID   = 66522
ELEMENT_SET_NO = 999
REV_AT_EPOCH   = 421
BSTAR          = -.28490822E-1
MEAN_MOTION_DOT = -.2027625E-1
MEAN_MOTION_DDOT = 0

CCSDS_OMM_VERS = 2.0
CREATION_DATE  = 
ORIGINATOR     = 

OBJECT_NAME    = STARLINK-35969
OBJECT_ID      = 2025-265H
CENTER_NAME    = EARTH
REF_FRAME      = TEME
TIME_SYSTEM    = UTC
MEAN_ELEMENT_THEORY = SGP/SGP4

EPOCH          = 2025-12-07T22:00:03.000096
MEAN_MOTION    = 15.59422493
ECCENTRICITY   = .00013672
INCLINATION    = 43.0004
RA_OF_ASC_NODE = 82.2706
ARG_OF_PERICENTER = 285.9376
MEAN_ANOMALY   = 237.7543

EPHEMERIS_TYPE = 0
CLASSIFICATION_TYPE = U
NORAD_CAT_ID   = 66523
ELEMENT_SET_NO = 999
REV_AT_EPOCH   = 421
BSTAR          = -.28488776E-1
MEAN_MOTION_DOT = -.2027466E-1
MEAN_MOTION_DDOT = 0

CCSDS_OMM_VERS = 2.0
CREATION_DATE  = 
ORIGINATOR     = 

OBJECT_NAME    = STARLINK-35687
OBJECT_ID      = 2025-265J
CENTER_NAME    = EARTH
REF_FRAME      = TEME
TIME_SYSTEM    = UTC
MEAN_ELEMENT_THEORY = SGP/SGP4

EPOCH          = 2025-12-07T22:00:03.000096
MEAN_MOTION    = 15.59423011
ECCENTRICITY   = .00012729
INCLINATION    = 43.0004
RA_OF_ASC_NODE = 82.2655
ARG_OF_PERICENTER = 282.3788
MEAN_ANOMALY   = 243.2301

EPHEMERIS_TYPE = 0
CLASSIFICATION_TYPE = U
NORAD_CAT_ID   = 66524
ELEMENT_SET_NO = 999
REV_AT_EPOCH   = 421
BSTAR          = -.28486328E-1
MEAN_MOTION_DOT = -.2027279E-1
MEAN_MOTION_DDOT = 0

CCSDS_OMM_VERS = 2.0
CREATION_DATE  = 
ORIGINATOR     = 

OBJECT_NAME    = STARLINK-35975
OBJECT_ID      = 2025-265K
CENTER_NAME    = EARTH
REF_FRAME      = TEME
TIME_SYSTEM    = UTC
MEAN_ELEMENT_THEORY = SGP/SGP4

EPOCH          = 2025-12-07T22:00:03.000096
MEAN_MOTION    = 15.59422398
ECCENTRICITY   = .00013239
INCLINATION    = 43.0003
RA_OF_ASC_NODE = 82.2609
ARG_OF_PERICENTER = 287.4431
MEAN_ANOMALY   = 240.0818

EPHEMERIS_TYPE = 0
CLASSIFICATION_TYPE = U
NORAD_CAT_ID   = 66525
ELEMENT_SET_NO = 999
REV_AT_EPOCH   = 421
BSTAR          = -.28472615E-1
MEAN_MOTION_DOT = -.2026423E-1
MEAN_MOTION_DDOT = 0

CCSDS_OMM_VERS = 2.0
CREATION_DATE  = 
ORIGINATOR     = 

OBJECT_NAME    = STARLINK-35932
OBJECT_ID      = 2025-265L
CENTER_NAME    = EARTH
REF_FRAME      = TEME
TIME_SYSTEM    = UTC
MEAN_ELEMENT_THEORY = SGP/SGP4

EPOCH          = 2025-12-07T22:00:03.000096
MEAN_MOTION    = 15.59422333
ECCENTRICITY   = .0001333
INCLINATION    = 43.0003
RA_OF_ASC_NODE = 82.2562
ARG_OF_PERICENTER = 286.4057
MEAN_ANOMALY   = 243.0374

EPHEMERIS_TYPE = 0
CLASSIFICATION_TYPE = U
NORAD_CAT_ID   = 66526
ELEMENT_SET_NO = 999
REV_AT_EPOCH   = 411
BSTAR          = -.28489602E-1
MEAN_MOTION_DOT = -.2027481E-1
MEAN_MOTION_DDOT = 0

CCSDS_OMM_VERS = 2.0
CREATION_DATE  = 
ORIGINATOR     = 

OBJECT_NAME    = STARLINK-35935
OBJECT_ID      = 2025-265M
CENTER_NAME    = EARTH
REF_FRAME      = TEME
TIME_SYSTEM    = UTC
MEAN_ELEMENT_THEORY = SGP/SGP4

EPOCH          = 2025-12-07T22:00:03.000096
MEAN_MOTION    = 15.59424438
ECCENTRICITY   = .00013397
INCLINATION    = 43.0003
RA_OF_ASC_NODE = 82.2516
ARG_OF_PERICENTER = 285.1732
MEAN_ANOMALY   = 246.1859

EPHEMERIS_TYPE = 0
CLASSIFICATION_TYPE = U
NORAD_CAT_ID   = 66527
ELEMENT_SET_NO = 999
REV_AT_EPOCH   = 422
BSTAR          = -.28527712E-1
MEAN_MOTION_DOT = -.2029997E-1
MEAN_MOTION_DDOT = 0

CCSDS_OMM_VERS = 2.0
CREATION_DATE  = 
ORIGINATOR     = 

OBJECT_NAME    = STARLINK-35928
OBJECT_ID      = 2025-265N
CENTER_NAME    = EARTH
REF_FRAME      = TEME
TIME_SYSTEM    = UTC
MEAN_ELEMENT_THEORY = SGP/SGP4

EPOCH          = 2025-12-07T22:00:03.000096
MEAN_MOTION    = 15.59422425
ECCENTRICITY   = .00013566
INCLINATION    = 43.0005
RA_OF_ASC_NODE = 82.2467
ARG_OF_PERICENTER = 283.7575
MEAN_ANOMALY   = 249.5195

EPHEMERIS_TYPE = 0
CLASSIFICATION_TYPE = U
NORAD_CAT_ID   = 66528
ELEMENT_SET_NO = 999
REV_AT_EPOCH   = 422
BSTAR          = -.28485219E-1
MEAN_MOTION_DOT = -.2027232E-1
MEAN_MOTION_DDOT = 0

CCSDS_OMM_VERS = 2.0
CREATION_DATE  = 
ORIGINATOR     = 

OBJECT_NAME    = STARLINK-35933
OBJECT_ID      = 2025-265P
CENTER_NAME    = EARTH
REF_FRAME      = TEME
TIME_SYSTEM    = UTC
MEAN_ELEMENT_THEORY = SGP/SGP4

EPOCH          = 2025-12-07T22:00:03.000096
MEAN_MOTION    = 15.59423873
ECCENTRICITY   = .00012874
INCLINATION    = 43.0004
RA_OF_ASC_NODE = 82.2417
ARG_OF_PERICENTER = 285.6741
MEAN_ANOMALY   = 249.5189

EPHEMERIS_TYPE = 0
CLASSIFICATION_TYPE = U
NORAD_CAT_ID   = 66529
ELEMENT_SET_NO = 999
REV_AT_EPOCH   = 422
BSTAR          = -.2850618E-1
MEAN_MOTION_DOT = -.2028582E-1
MEAN_MOTION_DDOT = 0

